{"Hospital":"Advent Health Gordon","Phone Number":"(706) 602-7800","Street":"1035 Red Bud Rd NE","City":" Calhoun","Zip":" 30701"}
{"Hospital":"Polk Medical Center","Phone Number":"(770) 748-2500","Street":"2360 Rockmart Hwy","City":" Cedartown","Zip":" 30125"}
{"Hospital":"Wellstar Paulding Hospital","Phone Number":"(470) 644-7000","Street":"2518 Jimmy Lee Smith Pkwy","City":" Hiram","Zip":" 30141"}
{"Hospital":"Northside - Cherokee Hospital","Phone Number":"(770) 224-1000","Street":"450 Northside Cherokee Blvd","City":" Canton","Zip":" 30115"}
{"Hospital":"Cartersville Medical Ctr","Phone Number":"(470) 490-1000","Street":"960 Joe Frank Harris Pkwy SE","City":" Cartersville","Zip":" 30120"}
{"Hospital":"Piedmont Mountainside","Phone Number":"(706) 692-2441","Street":"1266 GA-515","City":" Jasper","Zip":" 30143"}
{"Hospital":"HCC-C Tanner Higgins","Phone Number":"(770) 812-2000","Street":"200 Allen Memorial Dr","City":" Bremen","Zip":" 30110"}
{"Hospital":"Floyd Medical Center","Phone Number":"(706) 509-5000","Street":"304 Turner McCall Blvd","City":" Rome","Zip":" 30161"}
{"Hospital":"Advent Health Murray","Phone Number":"(706) 695-4564","Street":"707 Old Dalton Ellijay Rd","City":" Chatsworth","Zip":" 30705"}
{"Hospital":"Fannin Regional","Phone Number":"(706) 632-3711","Street":"2855 Old Hwy 5 North","City":" Blue Ridge","Zip":" 30513"}
{"Hospital":"Redmond Regional Medical Ctr","Phone Number":"(706) 291-0291","Street":"501 Redmond Rd","City":" Rome","Zip":" 30165"}
{"Hospital":"Hamilton Medical Center","Phone Number":"(706) 272-6195","Street":"1200 Memorial Dr","City":" Dalton","Zip":" 30720"}
{"Hospital":"CHI Memorial GA","Phone Number":"(706) 858-2000","Street":"100 Gross Crescent","City":" Fort Oglethorpe","Zip":" 30742"}
{"Hospital":"Northside - Forsyth Hospital","Phone Number":"(770) 844-3200","Street":"1200 Northside Forsyth Dr","City":" Cumming","Zip":" 30041"}
{"Hospital":"St. Marys Sacred Heart Hospital","Phone Number":"(706) 356-7800","Street":"367 Clear Creek Dr","City":" Lavonia","Zip":" 30553"}
{"Hospital":"NGMC Lumpkin","Phone Number":"(770) 219-9000","Street":"227 Mountain Dr","City":" Dahlonega","Zip":" 30533"}
{"Hospital":"NGMC Braselton","Phone Number":"(770) 848-8000","Street":"1400 River Place","City":" Braselton","Zip":" 30517"}
{"Hospital":"NGMC Gainesville RCH","Phone Number":"(770) 219-9000","Street":"743 Spring Street","City":" Gainesville","Zip":" 30501"}
{"Hospital":"Mountain Lakes Medical Center","Phone Number":"(706) 782-3100","Street":"162 Legacy Point","City":" Clayton","Zip":" 30525"}
{"Hospital":"Stephens County Hospital","Phone Number":"(706) 282-4200","Street":"163 Hospital Rd","City":" Toccoa","Zip":" 30577"}
{"Hospital":"Habersham Medical Center","Phone Number":"(706) 754-2161","Street":"541 Historic Hwy #441-N","City":" Demorest","Zip":" 30535"}
{"Hospital":"Union General Hospital","Phone Number":"(706) 745-2111","Street":"35 Hospital Rd","City":" Blairsville","Zip":" 30512"}
{"Hospital":"Chatuge Regional Hospital","Phone Number":"(706) 896-2222","Street":"110 S Main St","City":" Hiawassee","Zip":" 30546"}
{"Hospital":"CHOA - Egleston","Phone Number":"(404) 785-5437","Street":"1405 Clifton Rd NE","City":" Atlanta","Zip":" 30322"}
{"Hospital":"Grady Health System","Phone Number":"(404) 616-1000","Street":"80 Jesse Hill Jr Dr SE","City":" Atlanta","Zip":" 30303"}
{"Hospital":"Emory - University Hospital","Phone Number":"(404) 712-2000","Street":"1364 Clifton Rd","City":" Atlanta","Zip":" 30322"}
{"Hospital":"Eastside Medical Center","Phone Number":"(770) 979-0200","Street":"1700 Medical Way","City":" Snellville","Zip":" 30078"}
{"Hospital":"Northside - Atlanta Hospital","Phone Number":"(404) 851-8000","Street":"1000 Johnson Ferry Rd NE","City":" Atlanta","Zip":" 30342"}
{"Hospital":"Emory - Hillandale Hospital","Phone Number":"(404) 501-8000","Street":"2801 Dekalb Medical Pkwy","City":" Lithonia","Zip":" 30058"}
{"Hospital":"CHOA - Hughes Spalding","Phone Number":"(404) 785-5437","Street":"35 Jesse Hill Jr Dr SE","City":" Atlanta","Zip":" 30303"}
{"Hospital":"WellStar - AMC","Phone Number":"(404) 265-4000","Street":"303 Parkway Dr NE","City":" Atlanta","Zip":" 30312"}
{"Hospital":"Emory - St. Joseph's Hospital","Phone Number":"(678) 843-7001","Street":"5665 Peachtree Dunwoody Rd","City":" Atlanta","Zip":" 30342"}
{"Hospital":"Southern Regional Medical Center","Phone Number":"(770) 991-8000","Street":"11 Upper Riverdale Rd","City":" Riverdale","Zip":" 30274"}
{"Hospital":"WellStar - AMC South","Phone Number":"(404) 466-1170","Street":"1170 Cleveland Ave","City":" Atlanta","Zip":" 30344"}
{"Hospital":"Emory - Decatur Hospital","Phone Number":"(404) 501-1000","Street":"2701 N Decatur Rd","City":" Decatur","Zip":" 30033"}
{"Hospital":"Emory - University Hospital Midtown","Phone Number":"(404) 686-4411","Street":"550 Peachtree St NE","City":" Atlanta","Zip":" 30308"}
{"Hospital":"Piedmont - Atlanta Hospital","Phone Number":"(404) 605-5000","Street":"1968 Peachtree Rd NW","City":" Atlanta","Zip":" 30309"}
{"Hospital":"WellStar - North Fulton Hospital","Phone Number":"(770) 751-2500","Street":"3000 Hospital Blvd","City":" Roswell","Zip":" 30076"}
{"Hospital":"Wellstar Cobb Hospital","Phone Number":"(470) 732-4000","Street":"3950 Austell Rd SW","City":" Austell","Zip":" 30106"}
{"Hospital":"Wellstar Douglas Hospital","Phone Number":"(770) 949-1500","Street":"8954 Hospital Dr","City":" Douglasville","Zip":" 30134"}
{"Hospital":"Northside - Duluth Hospital","Phone Number":"(678) 312-6800","Street":"3620 Howell Ferry Rd NW","City":" Duluth","Zip":" 30096"}
{"Hospital":"Northside - Gwinnett","Phone Number":"(678) 312-1000","Street":"1000 Medical Center Blvd","City":" Lawrenceville","Zip":" 30046"}
{"Hospital":"Emory - Johns Creek Hospital","Phone Number":"(678) 474-7000","Street":"6325 Hospital Pkwy","City":" Johns Creek","Zip":" 30097"}
{"Hospital":"WellStar Kennestone Hospital","Phone Number":"(770) 793-5000","Street":"677 Church St","City":" Marietta","Zip":" 30060"}
{"Hospital":"Atlanta VA Health Care System","Phone Number":"(404) 321-6111","Street":"1513 Cleveland Ave building 300","City":" East Point","Zip":" 30344"}
{"Hospital":"Piedmont - Newton Hospital","Phone Number":"(770) 786-7053","Street":"5126 Hospital Dr NE","City":" Covington","Zip":" 30014"}
{"Hospital":"CHOA - Scottish Rite","Phone Number":"(404) 785-5437","Street":"1001 Johnson Ferry Rd NE","City":" Atlanta","Zip":" 30342"}
{"Hospital":"Emory University Orthopaedics and Spine Hospital","Phone Number":"(404) 251-3000","Street":"1455 Montreal Rd E","City":" Tucker","Zip":" 30084"}
{"Hospital":"GWCC ACF","Phone Number":"(404) 223-4000","Street":"285 Andrew Young International Blvd NW","City":" Atlanta","Zip":" 30313"}
{"Hospital":"WellStar West Georgia Medical Center","Phone Number":"(706) 882-1411","Street":"1514 Vernon Rd","City":" LaGrange","Zip":" 30240"}
{"Hospital":"Piedmont Henry Hospital","Phone Number":"(678) 604-1000","Street":"1133 Eagle's Landing Parkway","City":" Stockbridge","Zip":" 30281"}
{"Hospital":"Piedmont - Fayette Hospital","Phone Number":"(770) 719-7000","Street":"1255 Highway 54 West","City":" Fayetteville","Zip":" 30214"}
{"Hospital":"Piedmont Newnan","Phone Number":"(770) 400-1000","Street":"745 Poplar Rd","City":" Newnan","Zip":" 30265"}
{"Hospital":"WellStar Spalding Regional Hospital","Phone Number":"(770) 228-2721","Street":"601 S 8th St","City":" Griffin","Zip":" 30224"}
{"Hospital":"WellStar Sylvan Grove Hospital","Phone Number":"(770) 775-7861","Street":"1050 McDonough Rd","City":" Jackson","Zip":" 30233"}
{"Hospital":"Upson Regional Medical Center","Phone Number":"(706) 647-8111","Street":"801 W Gordon St","City":" Thomaston","Zip":" 30286"}
{"Hospital":"Tanner Medical Center Carrollton","Phone Number":"(770) 812-9666","Street":"705 Dixie St","City":" Carrollton","Zip":" 30117"}
{"Hospital":"Tanner Medical Center Villa Rica","Phone Number":"(770) 812-3000","Street":"601 Dallas Hwy","City":" Villa Rica","Zip":" 30180"}
{"Hospital":"Warm Springs Medical Center","Phone Number":"(706) 655-3331","Street":"5995 Spring St","City":" Warm Springs","Zip":" 31830"}
{"Hospital":"Dodge County Hospital","Phone Number":"(478) 448-4000","Street":"901 Griffin Ave","City":" Eastman","Zip":" 31023"}
{"Hospital":"Fairview Park Hospital","Phone Number":"(478) 275-2000","Street":"200 Industrial Blvd","City":" Dublin","Zip":" 31021"}
{"Hospital":"Perry Hospital","Phone Number":"(478) 987-3600","Street":"1120 Morningside Dr","City":" Perry","Zip":" 31069"}
{"Hospital":"Coliseum Northside Hospital","Phone Number":"(478) 757-8200","Street":"400 Charter Blvd","City":" Macon","Zip":" 31210"}
{"Hospital":"Coliseum Medical Center","Phone Number":"(478) 765-7000","Street":"350 Hospital Dr","City":" Macon","Zip":" 31217"}
{"Hospital":"Medical Center of Peach County","Phone Number":"(478) 654-2000","Street":"1960 GA-247CONN","City":" Byron","Zip":" 31008"}
{"Hospital":"Navicent Health Baldwin","Phone Number":"(478) 776-4000","Street":"821 N Cobb St","City":" Milledgeville","Zip":" 31061"}
{"Hospital":"Medical Center, Navicent Health","Phone Number":"(478) 633-1000","Street":"777 Hemlock St","City":" Macon","Zip":" 31201"}
{"Hospital":"Houston Medical Center","Phone Number":"(478) 922-4281","Street":"1601 Watson Blvd","City":" Warner Robins","Zip":" 31093"}
{"Hospital":"Taylor Regional Hospital","Phone Number":"(478) 783-0200","Street":"222 Perry Hwy","City":" Hawkinsville","Zip":" 31036"}
{"Hospital":"Jasper Memorial Hospital","Phone Number":"(706) 468-8826","Street":"898 College St","City":" Monticello","Zip":" 31064"}
{"Hospital":"Putnam General Hospital","Phone Number":"(706) 485-2711","Street":"101 Lake Oconee Pkwy","City":" Eatonton","Zip":" 31024"}
{"Hospital":"Monroe County Hospital","Phone Number":"(478) 994-2521","Street":"88 Martin Luther King Jr Dr","City":" Forsyth","Zip":" 31029"}
{"Hospital":"Washington County Regional Medical Center","Phone Number":"(478) 240-2000","Street":"610 Sparta Rd","City":" Sandersville","Zip":" 31082"}
{"Hospital":"Bleckley Memorial Hospital","Phone Number":"(478) 934-6211","Street":"145 Peacock St","City":" Cochran","Zip":" 31014"}
{"Hospital":"Regency Hospital of Central Georgia","Phone Number":"(478) 633-8260","Street":"700 Spring St","City":" Macon","Zip":" 31201"}
{"Hospital":"Burke Medical Center","Phone Number":"(706) 554-4435","Street":"351 S Liberty St","City":" Waynesboro","Zip":" 30830"}
{"Hospital":"Doctors Hospital","Phone Number":"(706) 651-3232","Street":"3651 Wheeler Rd","City":" Augusta","Zip":" 30909"}
{"Hospital":"Augusta University Medical Center","Phone Number":"(706) 721-2273","Street":"1120 15th St","City":" Augusta","Zip":" 30912"}
{"Hospital":"Emanuel Medical Center","Phone Number":"(478) 289-1100","Street":"117 Kight Rd","City":" Swainsboro","Zip":" 30401"}
{"Hospital":"Jenkins County Medical Center","Phone Number":"(478) 982-4221","Street":"931 E Winthrope Ave","City":" Millen","Zip":" 30442"}
{"Hospital":"University Hospital","Phone Number":"(706) 722-9011","Street":"1350 Walton Way","City":" Augusta","Zip":" 30901"}
{"Hospital":"University Hospital-Summerville","Phone Number":"(706) 481-7000","Street":"2260 Wrightsboro Rd","City":" Augusta","Zip":" 30904"}
{"Hospital":"University Hospital-McDuffie","Phone Number":"(706) 595-1411","Street":"2460 Washington Rd","City":" Thomson","Zip":" 30824"}
{"Hospital":"Optim Medical Screven","Phone Number":"(912) 564-7426","Street":"215 Mims Rd","City":" Sylvania","Zip":" 30467"}
{"Hospital":"Wills Memorial Hospital","Phone Number":"(706) 678-2151","Street":"120 Gordon St","City":" Washington","Zip":" 30673"}
{"Hospital":"Jefferson Hospital","Phone Number":"(478) 625-7000","Street":"1067 Peachtree St","City":" Louisville","Zip":" 30434"}
{"Hospital":"Piedmont Columbus Regional - Midtown Camp","Phone Number":"(706) 571-1000","Street":"710 Center St","City":" Columbus","Zip":" 31901"}
{"Hospital":"Piedmont Columbus Regional - Northside","Phone Number":"(706) 494-2100","Street":"100 Frist Ct","City":" Columbus","Zip":" 31909"}
{"Hospital":"St. Francis Hospital","Phone Number":"(706) 320-2739","Street":"2122 Manchester Expy","City":" Midland","Zip":" 31820"}
{"Hospital":"Flint River Hospital","Phone Number":"(478) 472-3100","Street":"509 Sumter St","City":" Montezuma","Zip":" 31063"}
{"Hospital":"Southwest Ga Regional Medical Center","Phone Number":"(229) 732-2181","Street":"361 Randolph St","City":" Cuthbert","Zip":" 39840"}
{"Hospital":"Miller County Hospital","Phone Number":"(229) 758-3304","Street":"208 N Cuthbert St","City":" Colquitt","Zip":" 39837"}
{"Hospital":"Colquitt Regional Regional Medical Center","Phone Number":"(229) 985-3420","Street":"3131 S Main St","City":" Moultrie","Zip":" 31768"}
{"Hospital":"John D. Archbold Memorial Hospital","Phone Number":"(229) 228-2000","Street":"915 Gordon Ave","City":" Thomasville","Zip":" 31792"}
{"Hospital":"Dorminy Medical Center","Phone Number":"(229) 424-7100","Street":"200 Perry House Rd","City":" Fitzgerald","Zip":" 31750"}
{"Hospital":"Crisp Regional Hospital","Phone Number":"(229) 276-3100","Street":"902 7th St N","City":" Cordele","Zip":" 31015"}
{"Hospital":"Tift Regional Medical Center","Phone Number":"(229) 382-7120","Street":"901 18th St","City":" Tifton","Zip":" 31794"}
{"Hospital":"Phoebe Putney Memorial Hospital","Phone Number":"(229) 312-1000","Street":"417 W 3rd Ave","City":" Albany","Zip":" 31701"}
{"Hospital":"Phoebe Sumter Medical Center","Phone Number":"(229) 924-6011","Street":"126 US-280","City":" Americus","Zip":" 31719"}
{"Hospital":"Memorial Hospital and Manor","Phone Number":"(229) 246-3500","Street":"1500 E Shotwell St","City":" Bainbridge","Zip":" 39819"}
{"Hospital":"Grady General Hospital","Phone Number":"(404) 616-1000","Street":"80 Jesse Hill Jr Dr SE","City":" Atlanta","Zip":" 30303"}
{"Hospital":"South Georgia Medical Center","Phone Number":"(229) 433-1000","Street":"2501 N Patterson St","City":" Valdosta","Zip":" 31602"}
{"Hospital":"Southwell Medical","Phone Number":"(229) 896-8000","Street":"260 M J Taylor Rd","City":" Adel","Zip":" 31620"}
{"Hospital":"SGMC Lanier Campus","Phone Number":"(229) 433-8440","Street":"116 W Thigpen Ave","City":" Lakeland","Zip":" 31635"}
{"Hospital":"SGMC Berrien Campus","Phone Number":"(229) 433-8600","Street":"1221 E Mcpherson Ave","City":" Nashville","Zip":" 31639"}
{"Hospital":"Irwin County Hospital","Phone Number":"(229) 468-3800","Street":"710 N Irwin Ave","City":" Ocilla","Zip":" 31774"}
{"Hospital":"Phoebe Worth Medical Center","Phone Number":"(229) 776-6961","Street":"807 S Isabella St","City":" Sylvester","Zip":" 31791"}
{"Hospital":"Phoebe Putney North","Phone Number":"(229) 434-2000","Street":"2000 Palmyra Rd","City":" Albany","Zip":" 31701"}
{"Hospital":"Mitchell County Hospital","Phone Number":"(229) 336-4600","Street":"90 E Stephens St","City":" Camilla","Zip":" 31730"}
{"Hospital":"Lifebrite Community Hospital of Early","Phone Number":"(229) 723-4241","Street":"11740 Columbia Street","City":" Blakely","Zip":" 39823"}
{"Hospital":"Donalsonville Hospital","Phone Number":"(229) 524-5217","Street":"102 N Wiley Ave","City":" Donalsonville","Zip":" 39845"}
{"Hospital":"Brooks County Hospital","Phone Number":"(229) 263-4171","Street":"903 N Court St","City":" Quitman","Zip":" 31643"}
{"Hospital":"Evans Memorial Hospital","Phone Number":"(912) 739-5000","Street":"200 N River St","City":" Claxton","Zip":" 30417"}
{"Hospital":"Memorial Satilla Health","Phone Number":"(912) 283-3030","Street":"1900 Tebeau St","City":" Waycross","Zip":" 31501"}
{"Hospital":"Bacon County Hospital","Phone Number":"(912) 632-8961","Street":"302 S Wayne St","City":" Alma","Zip":" 31510"}
{"Hospital":"Jeff Davis Hospital","Phone Number":"(912) 375-7781","Street":"163 S Tallahassee St","City":" Hazlehurst","Zip":" 31539"}
{"Hospital":"Optim Medical Tattnall","Phone Number":"(912) 557-1000","Street":"247 S Main St","City":" Reidsville","Zip":" 30453"}
{"Hospital":"East Georgia Regional Medical Center","Phone Number":"(912) 486-1000","Street":"1499 Fair Rd","City":" Statesboro","Zip":" 30458"}
{"Hospital":"Memorial Health University Medical Center","Phone Number":"(912) 350-8000","Street":"4700 Waters Ave","City":" Savannah","Zip":" 31404"}
{"Hospital":"Wayne Memorial Hospital","Phone Number":"(912) 427-6811","Street":"865 S 1st St","City":" Jesup","Zip":" 31545"}
{"Hospital":"Coffee Regional Medical Center","Phone Number":"(912) 384-1900","Street":"1101 Ocilla Rd","City":" Douglas","Zip":" 31533"}
{"Hospital":"Clinch Memorial Hospital","Phone Number":"(912) 487-5211","Street":"1050 Valdosta Hwy","City":" Homerville","Zip":" 31634"}
{"Hospital":"Appling Healthcare","Phone Number":"(912) 367-9841","Street":"163 E Tollison St","City":" Baxley","Zip":" 31513"}
{"Hospital":"Effingham Health System","Phone Number":"(912) 754-6451","Street":"459 GA-119","City":" Springfield","Zip":" 31329"}
{"Hospital":"Liberty Regional Medical Center","Phone Number":"(912) 369-9400","Street":"462 Elma G Miles Pkwy","City":" Hinesville","Zip":" 31313"}
{"Hospital":"Meadows Regional Medical Center","Phone Number":"(912) 535-5555","Street":"1 Meadows Pkwy","City":" Vidalia","Zip":" 30474"}
{"Hospital":"St. Joseph's Hospital","Phone Number":"(912) 819-4100","Street":"11705 Mercy Boulevard","City":" Savannah","Zip":" 31419"}
{"Hospital":"Southeast Georgia Health System St Marys","Phone Number":"(912) 576-6200","Street":"2000 Dan Proctor Dr","City":" St Marys","Zip":" 31558"}
{"Hospital":"Southeast Georgia Health System Brunswick","Phone Number":"(912) 466-7000","Street":"2415 Parkwood Dr","City":" Brunswick","Zip":" 31520"}
{"Hospital":"St. Joseph's Candler Hospital","Phone Number":"(912) 369-3954","Street":"5353 Reynolds St.","City":" Savannah","Zip":" 31405"}
{"Hospital":"Fort Stewart Winn Army","Phone Number":"(912) 435-6633","Street":"1061 Harmon Ave","City":" Fort Stewart","Zip":" 31314"}
{"Hospital":"Candler County Hospital - Metter","Phone Number":"(912) 685-5741","Street":"400 Cedar St","City":" Metter","Zip":" 30439"}
{"Hospital":"Piedmont Rockdale","Phone Number":"(770) 918-3000","Street":"1412 Milstead Ave NE","City":" Conyers","Zip":" 30012"}
{"Hospital":"Piedmont Athens Regional Medical Center","Phone Number":"(706) 475-7000","Street":"1199 Prince Ave","City":" Athens","Zip":" 30606"}
{"Hospital":"St. Marys Hospital","Phone Number":"(706) 389-3000","Street":"1230 Baxter St","City":" Athens","Zip":" 30606"}
{"Hospital":"NGMC Barrow","Phone Number":"(770) 867-3400","Street":"316 N Broad St","City":" Winder","Zip":" 30680"}
{"Hospital":"Elbert Memorial Hospital","Phone Number":"(706) 283-3151","Street":"4 Medical Dr","City":" Elberton","Zip":" 30635"}
{"Hospital":"St. Marys Good Samaritan Hospital","Phone Number":"(706) 453-7331","Street":"5401 Lake Oconee Pkwy","City":" Greensboro","Zip":" 30642"}
{"Hospital":"Morgan Medical Center","Phone Number":"(706) 342-1667","Street":"1740 Lions Club Rd","City":" Madison","Zip":" 30650"}
{"Hospital":"Piedmont Walton Hospital","Phone Number":"(770) 267-8461","Street":"2151 W Spring St","City":" Monroe","Zip":" 30655"}
{"Hospital":"Northridge Medical Center","Phone Number":"(706) 335-1000","Street":"70 Medical Center Dr","City":" Commerce","Zip":" 30529"}
{"Hospital":"Charlie Norwood VA Medical Center","Phone Number":"(706) 733-0188","Street":"1 Freedom Way","City":" Augusta","Zip":" 30904"}